NORAD_CAT_ID,OBJECT_NAME,OBJECT_TYPE,EPOCH,MEAN_MOTION,ECCENTRICITY,INCLINATION,RA_OF_ASC_NODE,ARG_OF_PERICENTER,MEAN_ANOMALY,BSTAR,MEAN_MOTION_DOT,MEAN_MOTION_DDOT,TLE_LINE0,TLE_LINE1,TLE_LINE2,SEMIMAJOR_AXIS,PERIOD,APOGEE,PERIGEE,DECAYED
53703.0,STARLINK-4731,PAYLOAD,2022-09-22 14:00:01,15.73137233,0.0001382,53.2137,186.5578,126.8063,34.9,0.00028513,0.00039477,0.0,0 STARLINK-4731,1 53703U 22107D   22265.58334491  .00039477  00000-0  28513-3 0  9996,2 53703  53.2137 186.5578 0001382 126.8063  34.9000 15.73137233  1306,6728.074000000001,91.537,350.869,349.009,0.0
53703.0,STARLINK-4731,PAYLOAD,2022-09-22 22:00:00,15.7318585,0.0001486,53.214,184.9092,125.49,125.0807,0.00019735,0.0002715,0.0,0 STARLINK-4731,1 53703U 22107D   22265.91667824  .00027150  00000-0  19735-3 0  9993,2 53703  53.2140 184.9092 0001486 125.4900 125.0807 15.73185850  1308,6727.936,91.534,350.8,348.801,0.0
53703.0,STARLINK-4731,PAYLOAD,2022-09-23 06:00:00,15.73205751,0.0001335,53.2141,183.261,117.3574,222.1349,0.00033589,0.00046794,0.0,0 STARLINK-4731,1 53703U 22107D   22266.25001157  .00046794  00000-0  33589-3 0  9990,2 53703  53.2141 183.2610 0001335 117.3574 222.1349 15.73205751  2974,6727.879,91.533,350.642,348.846,0.0
53703.0,STARLINK-4731,PAYLOAD,2022-09-23 14:00:01,15.73176587,0.000158,53.2145,181.6093,125.3106,303.1402,0.00034119,0.00047487,0.0,0 STARLINK-4731,1 53703U 22107D   22266.58334491  .00047487  00000-0  34119-3 0  9996,2 53703  53.2145 181.6093 0001580 125.3106 303.1402 15.73176587  3039,6727.962,91.535,350.89,348.764,0.0
53703.0,STARLINK-4731,PAYLOAD,2022-09-23 20:00:01,15.73214862,0.0001689,53.2146,180.3724,122.635,282.5614,0.00022701,0.00031379,0.0,0 STARLINK-4731,1 53703U 22107D   22266.83335648  .00031379  00000-0  22701-3 0  9996,2 53703  53.2146 180.3724 0001689 122.6350 282.5614 15.73214862  1300,6727.853,91.532,350.85400000000016,348.581,0.0
53703.0,STARLINK-4731,PAYLOAD,2022-09-24 06:00:00,15.7327449,0.0001424,53.2139,178.3121,119.5204,126.8441,-0.0002661,-0.00037917,0.0,0 STARLINK-4731,1 53703U 22107D   22267.25001157 -.00037917  00000-0 -26610-3 0  9997,2 53703  53.2139 178.3121 0001424 119.5204 126.8441 15.73274490  3134,6727.683000000001,91.529,350.506,348.59,0.0
53703.0,STARLINK-4731,PAYLOAD,2022-09-24 14:00:01,15.7318866,0.0001585,53.214,176.6604,130.2356,205.2123,0.00050807,0.00071257,0.0,0 STARLINK-4731,1 53703U 22107D   22267.58335648  .00071257  00000-0  50807-3 0  9996,2 53703  53.2140 176.6604 0001585 130.2356 205.2123 15.73188660  1308,6727.928000000001,91.534,350.8590000000001,348.726,0.0
53703.0,STARLINK-4731,PAYLOAD,2022-09-24 22:00:00,15.73276935,0.0001520999999999,53.2143,175.012,130.14,294.1796,-0.00062716,-0.00088014,0.0,0 STARLINK-4731,1 53703U 22107D   22267.91667824 -.00088014  00000-0 -62716-3 0  9990,2 53703  53.2143 175.0120 0001521 130.1400 294.1796 15.73276935  1302,6727.676,91.529,350.564,348.51800000000014,0.0
53703.0,STARLINK-4731,PAYLOAD,2022-09-25 14:00:01,15.72910983,0.0001582,53.2166,171.7109,113.5441,128.7606,0.002186,0.00314021,0.0,0 STARLINK-4731,1 53703U 22107D   22268.58334491  .00314021  00000-0  21860-2 0  9997,2 53703  53.2166 171.7109 0001582 113.5441 128.7606 15.72910983  3349,6728.719,91.55,351.649,349.52,0.0
53703.0,STARLINK-4731,PAYLOAD,2022-09-25 22:00:01,15.73211658,0.0001365999999999,53.215,170.0636,131.4212,199.7551,-0.00056618,-0.00079374,0.0,0 STARLINK-4731,1 53703U 22107D   22268.91668981 -.00079374  00000-0 -56618-3 0  9999,2 53703  53.2150 170.0636 0001366 131.4212 199.7551 15.73211658  3390,6727.861999999999,91.533,350.646,348.80800000000005,0.0
53703.0,STARLINK-4731,PAYLOAD,2022-09-26 10:00:00,15.73178881,0.0001392,53.2138,167.5888,132.8985,151.6035,3.4806e-05,4.263e-05,0.0,0 STARLINK-4731,1 53703U 22107D   22269.41667824  .00004263  00000-0  34806-4 0  9999,2 53703  53.2138 167.5888 0001392 132.8985 151.6035 15.73178881  3470,6727.955,91.534,350.75699999999995,348.884,0.0
53703.0,STARLINK-4731,PAYLOAD,2022-09-26 14:00:01,15.7316148,0.00015,53.2136,166.7633,138.7472,10.2213,0.00074577,0.0010519,0.0,0 STARLINK-4731,1 53703U 22107D   22269.58334491  .00105190  00000-0  74577-3 0  9997,2 53703  53.2136 166.7633 0001500 138.7472  10.2213 15.73161480  1309,6728.005,91.535,350.879,348.861,0.0
53703.0,STARLINK-4731,PAYLOAD,2022-09-26 22:00:00,15.73256508,0.0001468,53.2138,165.1152,134.2355,103.6404,-0.00070673,-0.00098888,0.0,0 STARLINK-4731,1 53703U 22107D   22269.91667824 -.00098888  00000-0 -70673-3 0  9993,2 53703  53.2138 165.1152 0001468 134.2355 103.6404 15.73256508  1309,6727.734,91.53,350.587,348.611,0.0
53703.0,STARLINK-4731,PAYLOAD,2022-09-27 14:00:01,15.73159819,0.0001425,53.2139,161.8145,142.7177,273.0261,0.00080107,0.00113135,0.0,0 STARLINK-4731,1 53703U 22107D   22270.58334491  .00113135  00000-0  80107-3 0  9993,2 53703  53.2139 161.8145 0001425 142.7177 273.0261 15.73159819  3665,6728.01,91.536,350.833,348.916,0.0
53703.0,STARLINK-4731,PAYLOAD,2022-09-27 22:00:01,15.73274668,0.0001365,53.2137,160.1663,133.8908,10.8526,-0.00015272,-0.00022066,0.0,0 STARLINK-4731,1 53703U 22107D   22270.91668981 -.00022066  00000-0 -15272-3 0  9999,2 53703  53.2137 160.1663 0001365 133.8908  10.8526 15.73274668  1306,6727.682,91.529,350.466,348.629,0.0
53703.0,STARLINK-4731,PAYLOAD,2022-09-28 06:00:00,15.73271289,0.0001371,53.2131,158.5169,130.1484,103.5372,-0.00024385,-0.00034806,0.0,0 STARLINK-4731,1 53703U 22107D   22271.25001157 -.00034806  00000-0 -24385-3 0  9993,2 53703  53.2131 158.5169 0001371 130.1484 103.5372 15.73271289  3765,6727.691999999999,91.529,350.47900000000016,348.635,0.0
53703.0,STARLINK-4731,PAYLOAD,2022-09-28 14:00:01,15.73209957,0.0001626,53.213,156.8654,136.9836,185.6972,-0.00027308,-0.00038787,0.0,0 STARLINK-4731,1 53703U 22107D   22271.58334491 -.00038787  00000-0 -27308-3 0  9999,2 53703  53.2130 156.8654 0001626 136.9836 185.6972 15.73209957  1300,6727.8669999999975,91.533,350.826,348.63800000000015,0.0
53703.0,STARLINK-4731,PAYLOAD,2022-09-28 22:00:00,15.73197582,0.0001472,53.2131,155.2176,134.7573,276.8487,-0.00099008,-0.00137316,0.0,0 STARLINK-4731,1 53703U 22107D   22271.91667824 -.00137316  00000-0 -99008-3 0  9999,2 53703  53.2131 155.2176 0001472 134.7573 276.8487 15.73197582  1300,6727.901999999999,91.533,350.75699999999995,348.777,0.0
53703.0,STARLINK-4731,PAYLOAD,2022-09-29 06:00:00,15.73097293,0.0001296999999999,53.2131,153.5681,137.8377,2.6333,0.00019235,0.00026342,0.0,0 STARLINK-4731,1 53703U 22107D   22272.25001157  .00026342  00000-0  19235-3 0  9996,2 53703  53.2131 153.5681 0001297 137.8377   2.6333 15.73097293  3926,6728.188,91.539,350.926,349.18,0.0
53703.0,STARLINK-4731,PAYLOAD,2022-09-29 14:00:01,15.73099206,0.0001448,53.2133,151.9167,144.9793,84.3124,0.00077312,0.00108827,0.0,0 STARLINK-4731,1 53703U 22107D   22272.58334491  .00108827  00000-0  77312-3 0  9991,2 53703  53.2133 151.9167 0001448 144.9793  84.3124 15.73099206  1309,6728.183000000001,91.539,351.022,349.0730000000001,0.0
53703.0,STARLINK-4731,PAYLOAD,2022-09-29 20:00:01,15.73169277,0.0001372,53.2135,150.6809,141.0672,64.9193,0.00025397,0.00035125,0.0,0 STARLINK-4731,1 53703U 22107D   22272.83335648  .00035125  00000-0  25397-3 0  9990,2 53703  53.2135 150.6809 0001372 141.0672  64.9193 15.73169277  4017,6727.983,91.535,350.771,348.925,0.0
53703.0,STARLINK-4731,PAYLOAD,2022-09-29 22:00:00,15.73165064,0.0001315,53.2132,150.2691,138.6936,179.4354,0.00027846,0.00038581,0.0,0 STARLINK-4731,1 53703U 22107D   22272.91667824  .00038581  00000-0  27846-3 0  9993,2 53703  53.2132 150.2691 0001315 138.6936 179.4354 15.73165064  1301,6727.995,91.535,350.745,348.975,0.0
53703.0,STARLINK-4731,PAYLOAD,2022-09-30 14:00:01,15.73256468,0.000152,53.2128,146.9681,145.6091,350.3695,-0.00013823,-0.00020021,0.0,0 STARLINK-4731,1 53703U 22107D   22273.58334491 -.00020021  00000-0 -13823-3 0  9990,2 53703  53.2128 146.9681 0001520 145.6091 350.3695 15.73256468  1302,6727.734,91.53,350.622,348.577,0.0
53703.0,STARLINK-4731,PAYLOAD,2022-09-30 22:00:00,15.73224422,0.0001415,53.213,145.3204,136.0014,88.9893,0.0004213,0.00058985,0.0,0 STARLINK-4731,1 53703U 22107D   22273.91667824  .00058985  00000-0  42130-3 0  9997,2 53703  53.2130 145.3204 0001415 136.0014  88.9893 15.73224422  4189,6727.826,91.532,350.64300000000014,348.73900000000015,0.0
53703.0,STARLINK-4731,PAYLOAD,2022-10-01 14:00:01,15.73221672,0.000158,53.2135,142.0187,140.2687,262.7136,-9.8689e-05,-0.0001446,0.0,0 STARLINK-4731,1 53703U 22107D   22274.58334491 -.00014460  00000-0 -98689-4 0  9995,2 53703  53.2135 142.0187 0001580 140.2687 262.7136 15.73221672  4292,6727.833000000001,91.532,350.761,348.635,0.0
53703.0,STARLINK-4731,PAYLOAD,2022-10-01 22:00:00,15.7320704,0.0001371,53.2134,140.3711,135.0294,356.9088,-0.00060266,-0.00084382,0.0,0 STARLINK-4731,1 53703U 22107D   22274.91667824 -.00084382  00000-0 -60266-3 0  9990,2 53703  53.2134 140.3711 0001371 135.0294 356.9088 15.73207040  1303,6727.875,91.533,350.662,348.8180000000001,0.0
53703.0,STARLINK-4731,PAYLOAD,2022-10-02 06:00:00,15.73166057,0.0001286999999999,53.2132,138.7211,140.6501,80.1874,0.00025879,0.00035802,0.0,0 STARLINK-4731,1 53703U 22107D   22275.25001157  .00035802  00000-0  25879-3 0  9991,2 53703  53.2132 138.7211 0001287 140.6501  80.1874 15.73166057  4399,6727.9919999999975,91.535,350.723,348.991,0.0
53703.0,STARLINK-4731,PAYLOAD,2022-10-02 14:00:01,15.73211678,0.0001506,53.2134,137.0702,145.4407,164.2967,3.9369e-05,4.911e-05,0.0,0 STARLINK-4731,1 53703U 22107D   22275.58334491  .00004911  00000-0  39369-4 0  9994,2 53703  53.2134 137.0702 0001506 145.4407 164.2967 15.73211678  1305,6727.861999999999,91.533,350.74,348.714,0.0
53703.0,STARLINK-4731,PAYLOAD,2022-10-02 22:00:00,15.73180857,0.0001398,53.2135,135.4229,136.3645,262.3039,0.00042968,0.00060066,0.0,0 STARLINK-4731,1 53703U 22107D   22275.91667824  .00060066  00000-0  42968-3 0  9991,2 53703  53.2135 135.4229 0001398 136.3645 262.3039 15.73180857  1308,6727.95,91.534,350.755,348.874,0.0
